NORAD_CAT_ID,OBJECT_NAME,OBJECT_TYPE,EPOCH,MEAN_MOTION,ECCENTRICITY,INCLINATION,RA_OF_ASC_NODE,ARG_OF_PERICENTER,MEAN_ANOMALY,BSTAR,MEAN_MOTION_DOT,MEAN_MOTION_DDOT,TLE_LINE0,TLE_LINE1,TLE_LINE2,SEMIMAJOR_AXIS,PERIOD,APOGEE,PERIGEE,DECAYED
51860.0,STARLINK-3559,PAYLOAD,2023-04-01 10:34:28,15.0883369,0.0001427,53.2158,147.1236,85.2863,274.8292,0.0012577,0.00019781,0.0,0 STARLINK-3559,1 51860U 22022J   23091.44061116  .00019781  00000-0  12577-2 0  9996,2 51860  53.2158 147.1236 0001427  85.2863 274.8292 15.08833690 61099,6917.9,95.438,540.752,538.777,0.0
51860.0,STARLINK-3559,PAYLOAD,2023-04-01 20:06:47,15.08837862,0.0001624,53.2156,145.3406,75.3828,284.7345,0.00091338,0.00014277,0.0,0 STARLINK-3559,1 51860U 22022J   23091.83805441  .00014277  00000-0  91338-3 0  9994,2 51860  53.2156 145.3406 0001624  75.3828 284.7345 15.08837862 61157,6917.887,95.438,540.875,538.628,0.0
51860.0,STARLINK-3559,PAYLOAD,2023-04-02 07:14:29,15.08848647,0.0001576,53.2156,143.2582,83.2629,276.8543,0.00082886,0.00012931,0.0,0 STARLINK-3559,1 51860U 22022J   23092.30173288  .00012931  00000-0  82886-3 0  9997,2 51860  53.2156 143.2582 0001576  83.2629 276.8543 15.08848647 61225,6917.854,95.437,540.809,538.629,0.0
51860.0,STARLINK-3559,PAYLOAD,2023-04-02 08:49:52,15.08849823,0.0001586,53.2156,142.9608,82.8756,277.2416,0.00080684,0.0001258,0.0,0 STARLINK-3559,1 51860U 22022J   23092.36797247  .00012580  00000-0  80684-3 0  9994,2 51860  53.2156 142.9608 0001586  82.8756 277.2416 15.08849823 61239,6917.85,95.437,540.813,538.618,0.0
51860.0,STARLINK-3559,PAYLOAD,2023-04-02 19:57:34,15.08838579,0.0001118,53.2165,140.8793,112.6124,247.4986,-9.1683e-05,-1.747e-05,0.0,0 STARLINK-3559,1 51860U 22022J   23092.83164906 -.00001747  00000-0 -91683-4 0  9993,2 51860  53.2165 140.8793 0001118 112.6124 247.4986 15.08838579 61308,6917.885,95.438,540.523,538.976,0.0
51860.0,STARLINK-3559,PAYLOAD,2023-04-03 10:16:02,15.08851326,0.0001432,53.2152,138.2036,97.354,262.7615,0.00055432,8.548e-05,0.0,0 STARLINK-3559,1 51860U 22022J   23093.42780837  .00008548  00000-0  55432-3 0  9991,2 51860  53.2152 138.2036 0001432  97.3540 262.7615 15.08851326 61398,6917.846,95.437,540.701,538.72,0.0
51860.0,STARLINK-3559,PAYLOAD,2023-04-03 13:26:48,15.08849045,0.000152,53.2161,137.6076,94.5231,265.5935,0.00049734,7.638e-05,0.0,0 STARLINK-3559,1 51860U 22022J   23093.56028871  .00007638  00000-0  49734-3 0  9996,2 51860  53.2161 137.6076 0001520  94.5231 265.5935 15.08849045 61413,6917.853,95.437,540.769,538.666,0.0
51860.0,STARLINK-3559,PAYLOAD,2023-04-03 19:48:21,15.08844409,0.0001463,53.2155,136.4193,98.7057,261.4101,0.00040059,6.094e-05,0.0,0 STARLINK-3559,1 51860U 22022J   23093.82524975  .00006094  00000-0  40059-3 0  9997,2 51860  53.2155 136.4193 0001463  98.7057 261.4101 15.08844409 61454,6917.867,95.437,540.744,538.72,0.0
51860.0,STARLINK-3559,PAYLOAD,2023-04-04 11:42:13,15.08802058,0.0001531,53.215,133.4462,95.9594,264.1573,-0.00091352,-0.00014782,0.0,0 STARLINK-3559,1 51860U 22022J   23094.48766172 -.00014782  00000-0 -91352-3 0  9994,2 51860  53.2150 133.4462 0001531  95.9594 264.1573 15.08802058 61554,6917.996,95.44,540.921,538.802,0.0
51860.0,STARLINK-3559,PAYLOAD,2023-04-04 14:53:00,15.08796029,0.0001459,53.215,132.8501,83.9743,276.1415,-0.00075011,-0.00012192,0.0,0 STARLINK-3559,1 51860U 22022J   23094.62014602 -.00012192  00000-0 -75011-3 0  9991,2 51860  53.2150 132.8501 0001459  83.9743 276.1415 15.08796029 61573,6918.015,95.44,540.889,538.87,0.0
51860.0,STARLINK-3559,PAYLOAD,2023-04-05 03:36:06,15.08806831,3.4e-05,53.2153,130.4715,228.0572,132.0391,0.00038889,5.902e-05,0.0,0 STARLINK-3559,1 51860U 22022J   23095.15007321  .00005902  00000-0  38889-3 0  9991,2 51860  53.2153 130.4715 0000340 228.0572 132.0391 15.08806831 61652,6917.982,95.44,540.082,539.612,0.0
51860.0,STARLINK-3559,PAYLOAD,2023-04-05 11:33:01,15.08867382,0.000139,53.2139,128.9859,74.3748,285.7398,0.0029427,0.00046892,0.0,0 STARLINK-3559,1 51860U 22022J   23095.48127296  .00046892  00000-0  29427-2 0  9991,2 51860  53.2139 128.9859 0001390  74.3748 285.7398 15.08867382 61707,6917.797,95.436,540.623,538.7,0.0
51860.0,STARLINK-3559,PAYLOAD,2023-04-06 08:13:01,15.08878671,0.0001519,53.2149,125.1162,109.8093,250.3063,0.0013351,0.00021047,0.0,0 STARLINK-3559,1 51860U 22022J   23096.34237818  .00021047  00000-0  13351-2 0  9993,2 51860  53.2149 125.1162 0001519 109.8093 250.3063 15.08878671 61838,6917.762,95.435,540.678,538.576,0.0
51860.0,STARLINK-3559,PAYLOAD,2023-04-06 12:59:10,15.08874454,0.0001517,53.2138,124.226,91.3672,268.7494,0.00071433,0.0001111,0.0,0 STARLINK-3559,1 51860U 22022J   23096.54109507  .00011110  00000-0  71433-3 0  9994,2 51860  53.2138 124.2260 0001517  91.3672 268.7494 15.08874454 61860,6917.775,95.435,540.69,538.591,0.0
51860.0,STARLINK-3559,PAYLOAD,2023-04-07 04:53:01,15.08855302,0.0001458,53.2146,121.2525,93.9341,266.1818,0.00013414,1.848e-05,0.0,0 STARLINK-3559,1 51860U 22022J   23097.20349247  .00001848  00000-0  13414-3 0  9997,2 51860  53.2146 121.2525 0001458  93.9341 266.1818 15.08855302 61969,6917.834,95.437,540.707,538.69,0.0
51860.0,STARLINK-3559,PAYLOAD,2023-04-07 12:49:57,15.0885833,0.0001515,53.2152,119.7652,92.8926,267.2239,0.00025065,3.705e-05,0.0,0 STARLINK-3559,1 51860U 22022J   23097.53468970  .00003705  00000-0  25065-3 0  9997,2 51860  53.2152 119.7652 0001515  92.8926 267.2239 15.08858330 62010,6917.824,95.436,540.737,538.641,0.0
51860.0,STARLINK-3559,PAYLOAD,2023-04-08 04:43:48,15.08843122,0.0002025,53.2154,116.7903,111.7213,248.3995,6.8704e-05,8.05e-06,0.0,0 STARLINK-3559,1 51860U 22022J   23098.19708993  .00000805  00000-0  68704-4 0  9998,2 51860  53.2154 116.7903 0002025 111.7213 248.3995 15.08843122 62118,6917.871,95.437,541.137,538.335,0.0
51860.0,STARLINK-3559,PAYLOAD,2023-04-08 11:05:21,15.08848641,0.000162,53.2154,115.6027,97.2218,262.8958,-2.423e-05,-6.74e-06,0.0,0 STARLINK-3559,1 51860U 22022J   23098.46205003 -.00000674  00000-0 -24230-4 0  9994,2 51860  53.2154 115.6027 0001620  97.2218 262.8958 15.08848641 62151,6917.854,95.437,540.84,538.598,0.0
51860.0,STARLINK-3559,PAYLOAD,2023-04-09 02:59:12,15.08841017,0.0001657,53.2158,112.6309,109.7129,250.4042,2.7166e-05,1.44e-06,0.0,0 STARLINK-3559,1 51860U 22022J   23099.12445304  .00000144  00000-0  27166-4 0  9999,2 51860  53.2158 112.6309 0001657 109.7129 250.4042 15.08841017 62253,6917.877,95.437,540.889,538.596,0.0
51860.0,STARLINK-3559,PAYLOAD,2023-04-09 10:56:08,15.08843155,0.0001616,53.2162,111.1439,109.0605,251.0562,5.855e-05,6.44e-06,0.0,0 STARLINK-3559,1 51860U 22022J   23099.45565134  .00000644  00000-0  58550-4 0  9995,2 51860  53.2162 111.1439 0001616 109.0605 251.0562 15.08843155 62308,6917.871,95.437,540.854,538.618,0.0
51860.0,STARLINK-3559,PAYLOAD,2023-04-09 17:17:41,15.08837379,0.0001477,53.2161,109.9543,95.1746,264.9414,-4.3887e-05,-9.86e-06,0.0,0 STARLINK-3559,1 51860U 22022J   23099.72061452 -.00000986  00000-0 -43887-4 0  9997,2 51860  53.2161 109.9543 0001477  95.1746 264.9414 15.08837379 62348,6917.888,95.438,540.775,538.732,0.0
51860.0,STARLINK-3559,PAYLOAD,2023-04-10 04:25:23,15.08835789,0.0001473,53.2173,107.8723,98.3631,261.7528,6.2605e-05,7.08e-06,0.0,0 STARLINK-3559,1 51860U 22022J   23100.18429935  .00000708  00000-0  62605-4 0  9993,2 51860  53.2173 107.8723 0001473  98.3631 261.7528 15.08835789 62414,6917.893,95.438,540.777,538.739,0.0
51860.0,STARLINK-3559,PAYLOAD,2023-04-10 10:46:55,15.08837854,0.0001474,53.2173,106.6831,97.6877,262.4282,6.8958e-05,8.1e-06,0.0,0 STARLINK-3559,1 51860U 22022J   23100.44925797  .00000810  00000-0  68958-4 0  9990,2 51860  53.2173 106.6831 0001474  97.6877 262.4282 15.08837854 62450,6917.887,95.438,540.772,538.732,0.0
51860.0,STARLINK-3559,PAYLOAD,2023-04-10 17:08:28,15.08837762,0.0001484,53.2174,105.4934,97.0544,263.0617,4.368e-05,4.07e-06,0.0,0 STARLINK-3559,1 51860U 22022J   23100.71421895  .00000407  00000-0  43680-4 0  9997,2 51860  53.2174 105.4934 0001484  97.0544 263.0617 15.08837762 62499,6917.887,95.438,540.779,538.726,0.0
51860.0,STARLINK-3559,PAYLOAD,2023-04-11 12:13:05,15.0884636,0.0001423,53.2169,101.9237,95.7646,264.3509,0.00011145,1.487e-05,0.0,0 STARLINK-3559,1 51860U 22022J   23101.50909198  .00001487  00000-0  11145-3 0  9991,2 51860  53.2169 101.9237 0001423  95.7646 264.3509 15.08846360 62613,6917.861,95.437,540.71,538.742,0.0
51860.0,STARLINK-3559,PAYLOAD,2023-04-11 16:59:15,15.0884341,0.0001434,53.2172,101.0292,84.0117,276.1038,6.762e-05,7.88e-06,0.0,0 STARLINK-3559,1 51860U 22022J   23101.70781532  .00000788  00000-0  67620-4 0  9996,2 51860  53.2172 101.0292 0001434  84.0117 276.1038 15.08843410 62649,6917.87,95.437,540.727,538.743,0.0
51860.0,STARLINK-3559,PAYLOAD,2023-04-12 08:53:07,15.08836692,0.0001543,53.2179,98.0554,82.0557,278.0611,7.1935e-05,8.57e-06,0.0,0 STARLINK-3559,1 51860U 22022J   23102.37022086  .00000857  00000-0  71935-4 0  9993,2 51860  53.2179  98.0554 0001543  82.0557 278.0611 15.08836692 62742,6917.891,95.438,540.823,538.688,0.0
51860.0,STARLINK-3559,PAYLOAD,2023-04-13 08:43:53,15.0884318,0.0001336,53.2175,93.598,87.0725,273.042,4.3645e-05,4.07e-06,0.0,0 STARLINK-3559,1 51860U 22022J   23103.36381758  .00000407  00000-0  43645-4 0  9995,2 51860  53.2175  93.5980 0001336  87.0725 273.0420 15.08843180 62892,6917.871,95.437,540.66,538.811,0.0
51860.0,STARLINK-3559,PAYLOAD,2023-04-14 08:34:40,15.0884251,0.0001195,53.2161,89.136,95.7736,264.3392,7.378e-05,8.87e-06,0.0,0 STARLINK-3559,1 51860U 22022J   23104.35741690  .00000887  00000-0  73780-4 0  9995,2 51860  53.2161  89.1360 0001195  95.7736 264.3392 15.08842510 63046,6917.873,95.437,540.564,538.911,0.0
51860.0,STARLINK-3559,PAYLOAD,2023-04-15 08:25:27,15.0885109,0.0001036,53.2164,84.6771,83.5717,276.5393,7.0887e-05,8.41e-06,0.0,0 STARLINK-3559,1 51860U 22022J   23105.35101263  .00000841  00000-0  70887-4 0  9997,2 51860  53.2164  84.6771 0001036  83.5717 276.5393 15.08851090 63198,6917.846,95.437,540.428,538.995,0.0
